KUIPER-00167            
1 65780U 25217U   26062.29903812  .00004986  00000+0  68343-3 0  9996
2 65780  51.8969  73.8272 0000342  27.1073 332.9907 14.79876642 23893
KUIPER-00168            
1 65781U 25217V   26062.18272969  .00000345  00000+0  74253-4 0  9990
2 65781  51.9013  56.8725 0000894  82.0309 278.0755 14.79931355 24124
KUIPER-00169            
1 65782U 25217W   26062.38045733  .00005297  00000+0  72585-3 0  9996
2 65782  51.9012  61.0064 0000729  93.2359 266.8687 14.79784099 24089
KUIPER-00170            
1 65783U 25217X   26062.37417924  .00003799  00000+0  52721-3 0  9996
2 65783  51.8987  66.0117 0000771  81.6557 278.4493 14.79924611 24015
KUIPER-00172            
1 65785U 25217Z   26062.75002314 -.01524455  00000+0 -16385+0 0  9995
2 65785  51.8957  45.2420 0002049 295.8664  98.3418 14.91461788  2824
KUIPER-00173            
1 65786U 25217AA  26062.41581167  .00001493  00000+0  21324-3 0  9999
2 65786  51.9016  60.1713 0001408 131.7345 228.3739 14.82255953 24094
KUIPER-00174            
1 65787U 25217AB  26062.35158995 -.00022581  00000+0 -29429-2 0  9998
2 65787  51.9031  56.1498 0000592  80.6654 279.4375 14.79934879 24141
KUIPER-00176            
1 65788U 25217AC  26062.40276198  .00005355  00000+0  73000-3 0  9994
2 65788  51.8995  70.8988 0000884  62.4412 297.6641 14.79983666 23944
KUIPER-00101            
1 65947U 25228A   26062.34750578 -.00002486  00000+0 -29717-3 0  9995
2 65947  51.8999  28.6221 0000716 113.0169 247.0869 14.79931306 22294
KUIPER-00113            
1 65948U 25228B   26062.11653963  .00005875  00000+0  79854-3 0  9991
2 65948  51.8994  24.6611 0000840  89.2903 270.8156 14.79953844 22325
KUIPER-00117            
1 65949U 25228C   26062.14763686 -.00000034  00000+0  24522-4 0  9995
2 65949  51.8993  27.0265 0000991  79.1139 280.9935 14.79940698 22299
KUIPER-00121            
1 65950U 25228D   26062.32179105  .00006491  00000+0  87972-3 0  9993
2 65950  51.9010  21.2503 0001322  99.5126 260.5986 14.79929635 22393
KUIPER-00122            
1 65951U 25228E   26062.10719678 -.00013237  00000+0 -17158-2 0  9991
2 65951  51.9015  32.1635 0000973  84.7942 275.3132 14.79810679 22225
KUIPER-00123            
1 65952U 25228F   26062.20993577  .00006203  00000+0  84191-3 0  9990
2 65952  51.8995  31.7465 0001031  91.7301 268.3779 14.79937341 22237
KUIPER-00124            
1 65953U 25228G   26062.08279391 -.00000146  00000+0  98690-5 0  9990
2 65953  51.8989  24.7939 0001077 102.0648 258.0435 14.79938137 22328
KUIPER-00125            
1 65954U 25228H   26062.23403476  .00006722  00000+0  91026-3 0  9990
2 65954  51.9019   9.1500 0000960 107.9676 252.1391 14.79912808 22558
KUIPER-00126            
1 65955U 25228J   26062.11116926  .00002172  00000+0  31374-3 0  9994
2 65955  51.8986  29.6911 0001021  99.6349 260.4729 14.79941050 22252
